[
    {
        "Altitude(m)": 611965.2150591388,
        "Argument of Periapsis(deg)": 0.0,
        "Eccentricity": 0.0,
        "Inclination(deg)": 60.0,
        "Latitude(deg)": 59.140251602322124,
        "Longitude(deg)": 163.9699658331561,
        "Mean Anomaly(deg)": 81.81819999999999,
        "RAAN(deg)": 190.0,
        "Satellite Name": "Test1 841",
        "Satellite Number": 841,
        "Semi-Major Axis(m)": 6980739.136638005,
        "Time(s)": 0
    },
    {
        "Altitude(m)": 611995.8399012742,
        "Argument of Periapsis(deg)": 0.00010418945913296404,
        "Eccentricity": 0.0,
        "Inclination(deg)": 60.0,
        "Latitude(deg)": 59.28334981392631,
        "Longitude(deg)": 165.10333181338353,
        "Mean Anomaly(deg)": 82.43830614546184,
        "RAAN(deg)": 189.99957995086027,
        "Satellite Name": "Test1 841",
        "Satellite Number": 841,
        "Semi-Major Axis(m)": 6980739.136638005,
        "Time(s)": 10
    }
]